[{"COMMENT":"GENERATED VIA SPACETRACK.ORG API","ORIGINATOR":"18 SPCS","NORAD_CAT_ID":"43476","OBJECT_NAME":"GRACE-FO 1","OBJECT_TYPE":"PAYLOAD","CLASSIFICATION_TYPE":"U","INTLDES":"18047A","EPOCH":"2023-06-20 03:59:30","EPOCH_MICROSECONDS":"967296","MEAN_MOTION":"15.26182841","ECCENTRICITY":"0.0015401","INCLINATION":"88.9871","RA_OF_ASC_NODE":"348.7532","ARG_OF_PERICENTER":"35.3756","MEAN_ANOMALY":"324.8511","EPHEMERIS_TYPE":"0","ELEMENT_SET_NO":"999","REV_AT_EPOCH":"28245","BSTAR":"0.0001179","MEAN_MOTION_DOT":"0.00003085","MEAN_MOTION_DDOT":"0","FILE":"3937571","TLE_LINE0":"0 GRACE-FO 1","TLE_LINE1":"1 43476U 18047A   23171.16633064  .00003085  00000-0  11790-3 0  9994","TLE_LINE2":"2 43476  88.9871 348.7532 0015401  35.3756 324.8511 15.26182841282452","OBJECT_ID":"2018-047A","OBJECT_NUMBER":"43476","SEMIMAJOR_AXIS":"6865.373","PERIOD":"94.353","APOGEE":"497.811","PERIGEE":"476.665","DECAYED":"0"},{"COMMENT":"GENERATED VIA SPACETRACK.ORG API","ORIGINATOR":"18 SPCS","NORAD_CAT_ID":"43476","OBJECT_NAME":"GRACE-FO 1","OBJECT_TYPE":"PAYLOAD","CLASSIFICATION_TYPE":"U","INTLDES":"18047A","EPOCH":"2023-06-20 11:51:36","EPOCH_MICROSECONDS":"621504","MEAN_MOTION":"15.2618476","ECCENTRICITY":"0.0015343","INCLINATION":"88.9871","RA_OF_ASC_NODE":"348.7086","ARG_OF_PERICENTER":"34.2271","MEAN_ANOMALY":"325.9963","EPHEMERIS_TYPE":"0","ELEMENT_SET_NO":"999","REV_AT_EPOCH":"28250","BSTAR":"0.00011665","MEAN_MOTION_DOT":"0.00003053","MEAN_MOTION_DDOT":"0","FILE":"3938135","TLE_LINE0":"0 GRACE-FO 1","TLE_LINE1":"1 43476U 18047A   23171.49417386  .00003053  00000-0  11665-3 0  9993","TLE_LINE2":"2 43476  88.9871 348.7086 0015343  34.2271 325.9963 15.26184760282502","OBJECT_ID":"2018-047A","OBJECT_NUMBER":"43476","SEMIMAJOR_AXIS":"6865.367","PERIOD":"94.353","APOGEE":"497.766","PERIGEE":"476.699","DECAYED":"0"},{"COMMENT":"GENERATED VIA SPACETRACK.ORG API","ORIGINATOR":"18 SPCS","NORAD_CAT_ID":"43476","OBJECT_NAME":"GRACE-FO 1","OBJECT_TYPE":"PAYLOAD","CLASSIFICATION_TYPE":"U","INTLDES":"18047A","EPOCH":"2023-06-20 19:43:42","EPOCH_MICROSECONDS":"230784","MEAN_MOTION":"15.26186846","ECCENTRICITY":"0.0015284","INCLINATION":"88.9873","RA_OF_ASC_NODE":"348.664","ARG_OF_PERICENTER":"33.0816","MEAN_ANOMALY":"327.1385","EPHEMERIS_TYPE":"0","ELEMENT_SET_NO":"999","REV_AT_EPOCH":"28255","BSTAR":"0.00011803","MEAN_MOTION_DOT":"0.00003089","MEAN_MOTION_DDOT":"0","FILE":"3938544","TLE_LINE0":"0 GRACE-FO 1","TLE_LINE1":"1 43476U 18047A   23171.82201656  .00003089  00000-0  11803-3 0  9994","TLE_LINE2":"2 43476  88.9873 348.6640 0015284  33.0816 327.1385 15.26186846282559","OBJECT_ID":"2018-047A","OBJECT_NUMBER":"43476","SEMIMAJOR_AXIS":"6865.361","PERIOD":"94.353","APOGEE":"497.719","PERIGEE":"476.733","DECAYED":"0"},{"COMMENT":"GENERATED VIA SPACETRACK.ORG API","ORIGINATOR":"18 SPCS","NORAD_CAT_ID":"43476","OBJECT_NAME":"GRACE-FO 1","OBJECT_TYPE":"PAYLOAD","CLASSIFICATION_TYPE":"U","INTLDES":"18047A","EPOCH":"2023-06-21 11:27:53","EPOCH_MICROSECONDS":"340480","MEAN_MOTION":"15.26190883","ECCENTRICITY":"0.0015166","INCLINATION":"88.9874","RA_OF_ASC_NODE":"348.5748","ARG_OF_PERICENTER":"30.7999","MEAN_ANOMALY":"329.4137","EPHEMERIS_TYPE":"0","ELEMENT_SET_NO":"999","REV_AT_EPOCH":"28265","BSTAR":"0.00011657","MEAN_MOTION_DOT":"0.00003051","MEAN_MOTION_DDOT":"0","FILE":"3938881","TLE_LINE0":"0 GRACE-FO 1","TLE_LINE1":"1 43476U 18047A   23172.47770070  .00003051  00000-0  11657-3 0  9993","TLE_LINE2":"2 43476  88.9874 348.5748 0015166  30.7999 329.4137 15.26190883282650","OBJECT_ID":"2018-047A","OBJECT_NUMBER":"43476","SEMIMAJOR_AXIS":"6865.349","PERIOD":"94.353","APOGEE":"497.626","PERIGEE":"476.802","DECAYED":"0"},{"COMMENT":"GENERATED VIA SPACETRACK.ORG API","ORIGINATOR":"18 SPCS","NORAD_CAT_ID":"43476","OBJECT_NAME":"GRACE-FO 1","OBJECT_TYPE":"PAYLOAD","CLASSIFICATION_TYPE":"U","INTLDES":"18047A","EPOCH":"2023-06-21 13:02:18","EPOCH_MICROSECONDS":"441600","MEAN_MOTION":"15.2619131","ECCENTRICITY":"0.0015151","INCLINATION":"88.9874","RA_OF_ASC_NODE":"348.5659","ARG_OF_PERICENTER":"30.5794","MEAN_ANOMALY":"329.6335","EPHEMERIS_TYPE":"0","ELEMENT_SET_NO":"999","REV_AT_EPOCH":"28266","BSTAR":"0.00011684","MEAN_MOTION_DOT":"0.00003058","MEAN_MOTION_DDOT":"0","FILE":"3939133","TLE_LINE0":"0 GRACE-FO 1","TLE_LINE1":"1 43476U 18047A   23172.54326900  .00003058  00000-0  11684-3 0  9997","TLE_LINE2":"2 43476  88.9874 348.5659 0015151  30.5794 329.6335 15.26191310282665","OBJECT_ID":"2018-047A","OBJECT_NUMBER":"43476","SEMIMAJOR_AXIS":"6865.347","PERIOD":"94.353","APOGEE":"497.614","PERIGEE":"476.811","DECAYED":"0"},{"COMMENT":"GENERATED VIA SPACETRACK.ORG API","ORIGINATOR":"18 SPCS","NORAD_CAT_ID":"43476","OBJECT_NAME":"GRACE-FO 1","OBJECT_TYPE":"PAYLOAD","CLASSIFICATION_TYPE":"U","INTLDES":"18047A","EPOCH":"2023-06-21 17:45:33","EPOCH_MICROSECONDS":"743232","MEAN_MOTION":"15.26192474","ECCENTRICITY":"0.0015116","INCLINATION":"88.9875","RA_OF_ASC_NODE":"348.5391","ARG_OF_PERICENTER":"29.8686","MEAN_ANOMALY":"330.3422","EPHEMERIS_TYPE":"0","ELEMENT_SET_NO":"999","REV_AT_EPOCH":"28269","BSTAR":"0.00011815","MEAN_MOTION_DOT":"0.00003092","MEAN_MOTION_DDOT":"0","FILE":"3940263","TLE_LINE0":"0 GRACE-FO 1","TLE_LINE1":"1 43476U 18047A   23172.73997388  .00003092  00000-0  11815-3 0  9996","TLE_LINE2":"2 43476  88.9875 348.5391 0015116  29.8686 330.3422 15.26192474282692","OBJECT_ID":"2018-047A","OBJECT_NUMBER":"43476","SEMIMAJOR_AXIS":"6865.344","PERIOD":"94.352","APOGEE":"497.587","PERIGEE":"476.831","DECAYED":"0"},{"COMMENT":"GENERATED VIA SPACETRACK.ORG API","ORIGINATOR":"18 SPCS","NORAD_CAT_ID":"43476","OBJECT_NAME":"GRACE-FO 1","OBJECT_TYPE":"PAYLOAD","CLASSIFICATION_TYPE":"U","INTLDES":"18047A","EPOCH":"2023-06-22 17:21:50","EPOCH_MICROSECONDS":"14656","MEAN_MOTION":"15.26199492","ECCENTRICITY":"0.0014936","INCLINATION":"88.9877","RA_OF_ASC_NODE":"348.4054","ARG_OF_PERICENTER":"26.4764","MEAN_ANOMALY":"333.7244","EPHEMERIS_TYPE":"0","ELEMENT_SET_NO":"999","REV_AT_EPOCH":"28284","BSTAR":"0.00012547","MEAN_MOTION_DOT":"0.00003282","MEAN_MOTION_DDOT":"0","FILE":"3940019","TLE_LINE0":"0 GRACE-FO 1","TLE_LINE1":"1 43476U 18047A   23173.72349554  .00003282  00000-0  12547-3 0  9996","TLE_LINE2":"2 43476  88.9877 348.4054 0014936  26.4764 333.7244 15.26199492282841","OBJECT_ID":"2018-047A","OBJECT_NUMBER":"43476","SEMIMAJOR_AXIS":"6865.323","PERIOD":"94.352","APOGEE":"497.442","PERIGEE":"476.934","DECAYED":"0"},{"COMMENT":"GENERATED VIA SPACETRACK.ORG API","ORIGINATOR":"18 SPCS","NORAD_CAT_ID":"43476","OBJECT_NAME":"GRACE-FO 1","OBJECT_TYPE":"PAYLOAD","CLASSIFICATION_TYPE":"U","INTLDES":"18047A","EPOCH":"2023-06-23 18:32:30","EPOCH_MICROSECONDS":"981984","MEAN_MOTION":"15.26206498","ECCENTRICITY":"0.0014756","INCLINATION":"88.9879","RA_OF_ASC_NODE":"348.2628","ARG_OF_PERICENTER":"22.791","MEAN_ANOMALY":"337.3991","EPHEMERIS_TYPE":"0","ELEMENT_SET_NO":"999","REV_AT_EPOCH":"28300","BSTAR":"0.00013252","MEAN_MOTION_DOT":"0.00003465","MEAN_MOTION_DDOT":"0","FILE":"3940875","TLE_LINE0":"0 GRACE-FO 1","TLE_LINE1":"1 43476U 18047A   23174.77258081  .00003465  00000-0  13252-3 0  9993","TLE_LINE2":"2 43476  88.9879 348.2628 0014756  22.7910 337.3991 15.26206498283003","OBJECT_ID":"2018-047A","OBJECT_NUMBER":"43476","SEMIMAJOR_AXIS":"6865.302","PERIOD":"94.352","APOGEE":"497.297","PERIGEE":"477.036","DECAYED":"0"},{"COMMENT":"GENERATED VIA SPACETRACK.ORG API","ORIGINATOR":"18 SPCS","NORAD_CAT_ID":"43476","OBJECT_NAME":"GRACE-FO 1","OBJECT_TYPE":"PAYLOAD","CLASSIFICATION_TYPE":"U","INTLDES":"18047A","EPOCH":"2023-06-25 02:00:51","EPOCH_MICROSECONDS":"576192","MEAN_MOTION":"15.26216626","ECCENTRICITY":"0.0014538","INCLINATION":"88.9881","RA_OF_ASC_NODE":"348.0845","ARG_OF_PERICENTER":"18.0827","MEAN_ANOMALY":"342.0936","EPHEMERIS_TYPE":"0","ELEMENT_SET_NO":"999","REV_AT_EPOCH":"28320","BSTAR":"0.00015611","MEAN_MOTION_DOT":"0.00004078","MEAN_MOTION_DDOT":"0","FILE":"3942048","TLE_LINE0":"0 GRACE-FO 1","TLE_LINE1":"1 43476U 18047A   23176.08393028  .00004078  00000-0  15611-3 0  9992","TLE_LINE2":"2 43476  88.9881 348.0845 0014538  18.0827 342.0936 15.26216626283206","OBJECT_ID":"2018-047A","OBJECT_NUMBER":"43476","SEMIMAJOR_AXIS":"6865.272","PERIOD":"94.351","APOGEE":"497.117","PERIGEE":"477.156","DECAYED":"0"},{"COMMENT":"GENERATED VIA SPACETRACK.ORG API","ORIGINATOR":"18 SPCS","NORAD_CAT_ID":"43476","OBJECT_NAME":"GRACE-FO 1","OBJECT_TYPE":"PAYLOAD","CLASSIFICATION_TYPE":"U","INTLDES":"18047A","EPOCH":"2023-06-26 09:29:11","EPOCH_MICROSECONDS":"414400","MEAN_MOTION":"15.2622545","ECCENTRICITY":"0.0014278","INCLINATION":"88.988","RA_OF_ASC_NODE":"347.9064","ARG_OF_PERICENTER":"13.2804","MEAN_ANOMALY":"346.8818","EPHEMERIS_TYPE":"0","ELEMENT_SET_NO":"999","REV_AT_EPOCH":"28340","BSTAR":"0.00013479","MEAN_MOTION_DOT":"0.00003526","MEAN_MOTION_DDOT":"0","FILE":"3943199","TLE_LINE0":"0 GRACE-FO 1","TLE_LINE1":"1 43476U 18047A   23177.39527100  .00003526  00000-0  13479-3 0  9994","TLE_LINE2":"2 43476  88.9880 347.9064 0014278  13.2804 346.8818 15.26225450283407","OBJECT_ID":"2018-047A","OBJECT_NUMBER":"43476","SEMIMAJOR_AXIS":"6865.245","PERIOD":"94.350","APOGEE":"496.912","PERIGEE":"477.308","DECAYED":"0"}]